start=new Date('2023-01-18T00:00:00.000Z').valueOf();
sats=[{"COUNTRY_CODE":"US","APOAPSIS":"548.687","SEMIMAJOR_AXIS":"6925.382","CENTER_NAME":"EARTH","TIME_SYSTEM":"UTC","TLE_LINE2":"2 48020  53.0513  16.1158 0002080  69.9964 290.1249 15.06389135102593","GP_ID":"223380276","RA_OF_ASC_NODE":"16.1158","MEAN_ANOMALY":"290.1249","EPHEMERIS_TYPE":"0","INCLINATION":"53.0513","MEAN_ELEMENT_THEORY":"SGP4","MEAN_MOTION":"15.06389135","LAUNCH_DATE":"2021-03-24","OBJECT_TYPE":"PAYLOAD","PERIAPSIS":"545.806","CLASSIFICATION_TYPE":"U","FILE":"3753286","EPOCH":"2023-01-17T16:31:37.079904","DECAY_DATE":null,"NORAD_CAT_ID":"48020","ARG_OF_PERICENTER":"69.9964","OBJECT_NAME":"STARLINK-2294","ELEMENT_SET_NO":"999","MEAN_MOTION_DDOT":"0.0000000000000","OBJECT_ID":"2021-024AV","RCS_SIZE":"LARGE","PERIOD":"95.593","MEAN_MOTION_DOT":"0.00011368","ECCENTRICITY":"0.00020800","SITE":"AFETR","TLE_LINE1":"1 48020U 21024AV  23017.68862361  .00011368  00000-0  78106-3 0  9990","BSTAR":"0.00078106000000","REV_AT_EPOCH":"10259","REF_FRAME":"TEME"},{"MEAN_ELEMENT_THEORY":"SGP4","INCLINATION":"53.0539","EPHEMERIS_TYPE":"0","MEAN_ANOMALY":"268.2969","RA_OF_ASC_NODE":"19.4661","TLE_LINE2":"2 48021  53.0539  19.4661 0001400  91.8181 268.2969 15.06429209102117","GP_ID":"223356483","TIME_SYSTEM":"UTC","SEMIMAJOR_AXIS":"6925.259","APOAPSIS":"548.094","CENTER_NAME":"EARTH","COUNTRY_CODE":"US","FILE":"3753182","DECAY_DATE":null,"EPOCH":"2023-01-17T23:11:36.105504","PERIAPSIS":"546.155","CLASSIFICATION_TYPE":"U","OBJECT_TYPE":"PAYLOAD","LAUNCH_DATE":"2021-03-24","MEAN_MOTION":"15.06429209","RCS_SIZE":"LARGE","OBJECT_ID":"2021-024AW","MEAN_MOTION_DDOT":"0.0000000000000","ELEMENT_SET_NO":"999","OBJECT_NAME":"STARLINK-2301","ARG_OF_PERICENTER":"91.8181","NORAD_CAT_ID":"48021","REF_FRAME":"TEME","REV_AT_EPOCH":"10211","BSTAR":"0.00225130000000","TLE_LINE1":"1 48021U 21024AW  23017.96639011  .00033438  00000-0  22513-2 0  9998","SITE":"AFETR","ECCENTRICITY":"0.00014000","MEAN_MOTION_DOT":"0.00033438","PERIOD":"95.590"},{"APOAPSIS":"548.534","CENTER_NAME":"EARTH","SEMIMAJOR_AXIS":"6925.438","TIME_SYSTEM":"UTC","COUNTRY_CODE":"US","MEAN_ANOMALY":"276.6931","TLE_LINE2":"2 48022  53.0562  82.0002 0001778  83.4260 276.6931 15.06370926101710","GP_ID":"223321418","RA_OF_ASC_NODE":"82.0002","EPHEMERIS_TYPE":"0","INCLINATION":"53.0562","MEAN_ELEMENT_THEORY":"SGP4","LAUNCH_DATE":"2021-03-24","MEAN_MOTION":"15.06370926","FILE":"3753023","DECAY_DATE":null,"EPOCH":"2023-01-17T11:07:10.832448","OBJECT_TYPE":"PAYLOAD","CLASSIFICATION_TYPE":"U","PERIAPSIS":"546.071","NORAD_CAT_ID":"48022","ARG_OF_PERICENTER":"83.4260","ELEMENT_SET_NO":"999","OBJECT_NAME":"STARLINK-2298","RCS_SIZE":"LARGE","OBJECT_ID":"2021-024AX","MEAN_MOTION_DDOT":"0.0000000000000","PERIOD":"95.594","ECCENTRICITY":"0.00017780","SITE":"AFETR","MEAN_MOTION_DOT":"-0.00000138","TLE_LINE1":"1 48022U 21024AX  23017.46331982 -.00000138  00000-0  96633-5 0  9999","BSTAR":"0.00000966330000","REV_AT_EPOCH":"10171","REF_FRAME":"TEME"},{"MEAN_ANOMALY":"262.3631","GP_ID":"223321669","TLE_LINE2":"2 48023  53.0507  81.7749 0001818  97.7565 262.3631 15.06377903101716","RA_OF_ASC_NODE":"81.7749","APOAPSIS":"548.540","CENTER_NAME":"EARTH","SEMIMAJOR_AXIS":"6925.416","TIME_SYSTEM":"UTC","COUNTRY_CODE":"US","INCLINATION":"53.0507","MEAN_ELEMENT_THEORY":"SGP4","EPHEMERIS_TYPE":"0","FILE":"3753023","EPOCH":"2023-01-17T10:51:10.690848","DECAY_DATE":null,"OBJECT_TYPE":"PAYLOAD","PERIAPSIS":"546.022","CLASSIFICATION_TYPE":"U","LAUNCH_DATE":"2021-03-24","MEAN_MOTION":"15.06377903","ARG_OF_PERICENTER":"97.7565","NORAD_CAT_ID":"48023","RCS_SIZE":"LARGE","OBJECT_ID":"2021-024AY","MEAN_MOTION_DDOT":"0.0000000000000","ELEMENT_SET_NO":"999","OBJECT_NAME":"STARLINK-2292","SITE":"AFETR","ECCENTRICITY":"0.00018180","MEAN_MOTION_DOT":"-0.00007294","PERIOD":"95.594","REF_FRAME":"TEME","TLE_LINE1":"1 48023U 21024AY  23017.45220707 -.00007294  00000-0 -47155-3 0  9995","BSTAR":"-0.00047155000000","REV_AT_EPOCH":"10171"},{"BSTAR":"-0.00088025000000","TLE_LINE1":"1 48026U 21024BB  23017.23243855 -.00013357  00000-0 -88025-3 0  9991","REV_AT_EPOCH":"10155","REF_FRAME":"TEME","PERIOD":"95.594","MEAN_MOTION_DOT":"-0.00013357","SITE":"AFETR","ECCENTRICITY":"0.00013770","OBJECT_NAME":"STARLINK-2278","ELEMENT_SET_NO":"999","MEAN_MOTION_DDOT":"0.0000000000000","RCS_SIZE":"LARGE","OBJECT_ID":"2021-024BB","NORAD_CAT_ID":"48026","ARG_OF_PERICENTER":"73.0833","MEAN_MOTION":"15.06367505","LAUNCH_DATE":"2021-03-24","OBJECT_TYPE":"PAYLOAD","CLASSIFICATION_TYPE":"U","PERIAPSIS":"546.360","EPOCH":"2023-01-17T05:34:42.690720","FILE":"3753023","DECAY_DATE":null,"EPHEMERIS_TYPE":"0","INCLINATION":"53.0550","MEAN_ELEMENT_THEORY":"SGP4","COUNTRY_CODE":"US","CENTER_NAME":"EARTH","APOAPSIS":"548.267","SEMIMAJOR_AXIS":"6925.448","TIME_SYSTEM":"UTC","TLE_LINE2":"2 48026  53.0550  87.7615 0001377  73.0833 287.0306 15.06367505101552","GP_ID":"223322416","RA_OF_ASC_NODE":"87.7615","MEAN_ANOMALY":"287.0306"},{"PERIOD":"95.593","MEAN_MOTION_DOT":"-0.00003897","SITE":"AFETR","ECCENTRICITY":"0.00023760","REV_AT_EPOCH":"10145","BSTAR":"-0.00024296000000","TLE_LINE1":"1 48027U 21024BC  23017.39139443 -.00003897  00000-0 -24296-3 0  9994","REF_FRAME":"TEME","NORAD_CAT_ID":"48027","ARG_OF_PERICENTER":"103.4135","OBJECT_NAME":"STARLINK-2300","ELEMENT_SET_NO":"999","MEAN_MOTION_DDOT":"0.0000000000000","OBJECT_ID":"2021-024BC","RCS_SIZE":"LARGE","MEAN_MOTION":"15.06383651","LAUNCH_DATE":"2021-03-24","PERIAPSIS":"545.618","CLASSIFICATION_TYPE":"U","OBJECT_TYPE":"PAYLOAD","FILE":"3753239","EPOCH":"2023-01-17T09:23:36.478752","DECAY_DATE":null,"COUNTRY_CODE":"US","TIME_SYSTEM":"UTC","SEMIMAJOR_AXIS":"6925.399","APOAPSIS":"548.909","CENTER_NAME":"EARTH","RA_OF_ASC_NODE":"62.0360","GP_ID":"223357649","TLE_LINE2":"2 48027  53.0513  62.0360 0002376 103.4135 256.7119 15.06383651101452","MEAN_ANOMALY":"256.7119","EPHEMERIS_TYPE":"0","MEAN_ELEMENT_THEORY":"SGP4","INCLINATION":"53.0513"},{"ARG_OF_PERICENTER":"84.9245","NORAD_CAT_ID":"48028","MEAN_MOTION_DDOT":"0.0000000000000","OBJECT_ID":"2021-024BD","RCS_SIZE":"LARGE","OBJECT_NAME":"STARLINK-2264","ELEMENT_SET_NO":"999","MEAN_MOTION_DOT":"0.00001916","SITE":"AFETR","ECCENTRICITY":"0.00021700","PERIOD":"95.593","REF_FRAME":"TEME","TLE_LINE1":"1 48028U 21024BD  23017.97243979  .00001916  00000-0  14750-3 0  9991","BSTAR":"0.00014750000000","REV_AT_EPOCH":"10216","GP_ID":"223356393","TLE_LINE2":"2 48028  53.0537  14.8340 0002170  84.9245 275.1992 15.06393721102161","RA_OF_ASC_NODE":"14.8340","MEAN_ANOMALY":"275.1992","COUNTRY_CODE":"US","APOAPSIS":"548.736","CENTER_NAME":"EARTH","SEMIMAJOR_AXIS":"6925.368","TIME_SYSTEM":"UTC","INCLINATION":"53.0537","MEAN_ELEMENT_THEORY":"SGP4","EPHEMERIS_TYPE":"0","OBJECT_TYPE":"PAYLOAD","CLASSIFICATION_TYPE":"U","PERIAPSIS":"545.730","FILE":"3753182","DECAY_DATE":null,"EPOCH":"2023-01-17T23:20:18.797856","MEAN_MOTION":"15.06393721","LAUNCH_DATE":"2021-03-24"},{"FILE":"3753286","DECAY_DATE":null,"EPOCH":"2023-01-17T16:41:30.246144","PERIAPSIS":"546.341","CLASSIFICATION_TYPE":"U","OBJECT_TYPE":"PAYLOAD","LAUNCH_DATE":"2021-03-24","MEAN_MOTION":"15.06385829","MEAN_ELEMENT_THEORY":"SGP4","INCLINATION":"53.0549","EPHEMERIS_TYPE":"0","MEAN_ANOMALY":"253.6677","RA_OF_ASC_NODE":"80.6706","GP_ID":"223380027","TLE_LINE2":"2 48029  53.0549  80.6706 0001322 106.4457 253.6677 15.06385829101750","TIME_SYSTEM":"UTC","APOAPSIS":"548.173","CENTER_NAME":"EARTH","SEMIMAJOR_AXIS":"6925.392","COUNTRY_CODE":"US","REF_FRAME":"TEME","REV_AT_EPOCH":"10175","BSTAR":"0.00234490000000","TLE_LINE1":"1 48029U 21024BE  23017.69548896  .00034805  00000-0  23449-2 0  9994","ECCENTRICITY":"0.00013220","SITE":"AFETR","MEAN_MOTION_DOT":"0.00034805","PERIOD":"95.593","OBJECT_ID":"2021-024BE","RCS_SIZE":"LARGE","MEAN_MOTION_DDOT":"0.0000000000000","ELEMENT_SET_NO":"999","OBJECT_NAME":"STARLINK-2299","ARG_OF_PERICENTER":"106.4457","NORAD_CAT_ID":"48029"},{"NORAD_CAT_ID":"48030","ARG_OF_PERICENTER":"79.6611","OBJECT_NAME":"STARLINK-2268","ELEMENT_SET_NO":"999","MEAN_MOTION_DDOT":"0.0000000000000","RCS_SIZE":"LARGE","OBJECT_ID":"2021-024BF","PERIOD":"95.595","MEAN_MOTION_DOT":"-0.00000590","ECCENTRICITY":"0.00019750","SITE":"AFETR","TLE_LINE1":"1 48030U 21024BF  23017.52364514 -.00000590  00000-0 -20727-4 0  9995","BSTAR":"-0.00002072700000","REV_AT_EPOCH":"10159","REF_FRAME":"TEME","COUNTRY_CODE":"US","CENTER_NAME":"EARTH","APOAPSIS":"548.708","SEMIMAJOR_AXIS":"6925.476","TIME_SYSTEM":"UTC","GP_ID":"223321916","TLE_LINE2":"2 48030  53.0553  86.4548 0001975  79.6611 280.4601 15.06358560101591","RA_OF_ASC_NODE":"86.4548","MEAN_ANOMALY":"280.4601","EPHEMERIS_TYPE":"0","INCLINATION":"53.0553","MEAN_ELEMENT_THEORY":"SGP4","MEAN_MOTION":"15.06358560","LAUNCH_DATE":"2021-03-24","OBJECT_TYPE":"PAYLOAD","PERIAPSIS":"545.973","CLASSIFICATION_TYPE":"U","EPOCH":"2023-01-17T12:34:02.940096","FILE":"3753023","DECAY_DATE":null},{"MEAN_MOTION_DOT":"0.00002668","SITE":"AFETR","ECCENTRICITY":"0.00018010","PERIOD":"95.593","REF_FRAME":"TEME","REV_AT_EPOCH":"10326","TLE_LINE1":"1 48031U 21024BG  23017.89360458  .00002668  00000-0  19803-3 0  9997","BSTAR":"0.00019803000000","ARG_OF_PERICENTER":"95.0374","NORAD_CAT_ID":"48031","MEAN_MOTION_DDOT":"0.0000000000000","OBJECT_ID":"2021-024BG","RCS_SIZE":"MEDIUM","OBJECT_NAME":"STARLINK-2267","ELEMENT_SET_NO":"999","CLASSIFICATION_TYPE":"U","PERIAPSIS":"546.031","OBJECT_TYPE":"PAYLOAD","DECAY_DATE":null,"FILE":"3753286","EPOCH":"2023-01-17T21:26:47.435712","MEAN_MOTION":"15.06378881","LAUNCH_DATE":"2021-03-24","RA_OF_ASC_NODE":"329.7947","GP_ID":"223381028","TLE_LINE2":"2 48031  53.0534 329.7947 0001801  95.0374 265.0821 15.06378881103260","MEAN_ANOMALY":"265.0821","COUNTRY_CODE":"US","TIME_SYSTEM":"UTC","SEMIMAJOR_AXIS":"6925.413","APOAPSIS":"548.526","CENTER_NAME":"EARTH","MEAN_ELEMENT_THEORY":"SGP4","INCLINATION":"53.0534","EPHEMERIS_TYPE":"0"}];
